#aV2013  8 11  0  0  0.00000000     288 DD+AD WGS84 FIT  NGA
## 1753      0.00000000   300.00000000 56515 0.0000000000000
+   31     1  2  3  4  5  6  7  8  9 10 11 12 13 14 15 16 17
+         18 19 20 21 22 23 24 25 26 27 28 29 31 32  0  0  0
+          0  0  0  0  0  0  0  0  0  0  0  0  0  0  0  0  0
+          0  0  0  0  0  0  0  0  0  0  0  0  0  0  0  0  0
+          0  0  0  0  0  0  0  0  0  0  0  0  0  0  0  0  0
++         2  2  2  2  2  2  2  2  2  2  2  2  2  2  2  2  2
++         2  2  2  2  2  2  2  2  2  2  2  2  2  2  2  0  0
++         0  0  0  0  0  0  0  0  0  0  0  0  0  0  0  0  0
++         0  0  0  0  0  0  0  0  0  0  0  0  0  0  0  0  0
++         0  0  0  0  0  0  0  0  0  0  0  0  0  0  0  0  0
%c cc cc ccc ccc cccc cccc cccc cccc ccccc ccccc ccccc ccccc
%c cc cc ccc ccc cccc cccc cccc cccc ccccc ccccc ccccc ccccc
%f  0.0000000  0.000000000  0.00000000000  0.000000000000000
%f  0.0000000  0.000000000  0.00000000000  0.000000000000000
%i    0    0    0    0      0      0      0      0         0
%i    0    0    0    0      0      0      0      0         0
/*      NGA, ST. LOUIS,MO.                                  
/*   EPHEMERIS COMPUTED FROM  1 DAYS OF DATA
/*   EPOCHA SMOOTHER  
/* CCCCCCCCCCCCCCCCCCCCCCCCCCCCCCCCCCCCCCCCCCCCCCCCCCCCCCCCC
*  2013  8 11 17 35  0.00000000                                                 
P  1  13802.072659 -21769.536560   6160.408898     61.789499                    
V  1   -466.704583   8342.951772  30515.424204      0.046811                    
P  2 -16293.685193    133.970240 -20668.450932    446.065807                    
V  2   8822.255904 -25469.759135  -7547.306015      0.018156                    
P  3  20349.486285   2997.677702  16380.756721    244.686640                    
V  3  13965.433329  16907.522889 -19607.513300      0.050264                    
P  4 -11473.329625 -12239.600797 -20828.139925    297.201399                    
V  4  10802.938279 -23599.811024   8301.395126      0.102884                    
P  5 -26450.180862   1401.448936  -2886.796821   -399.436740                    
V  5   3193.046306  -3515.510539 -31091.639735     -0.002246                    
P  6  21163.268788   9633.647663  13239.455305     98.288400                    
V  6   9085.590452  14105.351750 -24533.584658     -0.187929                    
P  7   4426.194428 -24555.186558   8673.756313    246.234766                    
V  7   6652.862125  -9107.810949 -29657.006928      0.042152                    
P  8  -2534.091538 -19227.548828  17967.754617      7.898516                    
V  8  12189.955027 -19232.952281 -19575.436389      0.001531                    
P  9  -3905.097459 -19688.811514  16775.484679    260.620118                    
V  9  10022.339598 -20065.160542 -20659.443600      0.023985                    
P 10 -18100.971052 -10361.897198 -16978.037373    -90.239175                    
V 10  20552.869491  -4099.255524 -19342.848040     -0.014639                    
P 11  13178.500065 -17724.289282  14116.054242   -409.323482                    
V 11   2116.374668  19319.109578  21851.643131     -0.035883                    
P 12 -20680.634227  10507.789210 -12791.557905    149.941198                    
V 12 -16304.497620   -263.293578  26437.613074      0.021736                    
P 13  -1652.844615 -21889.828362 -14982.199319     91.030382                    
V 13  11246.813229  15164.218905 -23741.014911     -0.037244                    
P 14  15709.500715  21400.454480  -2081.321745    218.075966                    
V 14   -339.681093   3667.929283  31783.412982     -0.006047                    
P 15 -12181.996138   9832.417510  21428.085260   -131.758909                    
V 15 -17341.128699 -21158.459924    111.883700     -0.017411                    
P 16  26578.259585    -40.868077  -3014.069450   -248.813130                    
V 16  -3599.434335   2016.416182 -31766.484226      0.006325                    
P 17 -15380.559523 -21810.685809   -108.759424    -10.204513                    
V 17   1777.126933  -1737.230790  31717.226809     -0.038061                    
P 18   1981.833423  16028.632752  21505.319718    268.244582                    
V 18 -26272.845120   3259.249947   -358.420316      0.019616                    
P 19  15178.993365  -3794.841397  21405.323973   -395.796716                    
V 19  14267.576194  23358.030533  -5526.850281     -0.028277                    
P 20  15373.176618 -14923.155223 -15824.684294    115.051267                    
V 20  20051.179926  -1092.170767  20809.184146      0.024293                    
P 21   -260.010968  23745.281512  11934.760422   -313.064915                    
V 21  -8642.014888  12145.429136 -26117.743963     -0.019194                    
P 22  14793.671203  12250.643701  18604.489508    179.620571                    
V 22 -22871.450494   4763.566137  15068.373556      0.016051                    
P 23   6316.532247 -15628.039686 -20342.756851     58.468573                    
V 23  16594.784247  20244.074896 -10756.401393     -0.035003                    
P 24 -15263.730596  19400.974873   9732.922715    -11.672544                    
V 24   2246.445560 -12463.027081  28379.000487     -0.007245                    
P 25  -7557.427850  15112.477378 -20528.037249    134.158626                    
V 25 -25806.038265   2578.066773  11525.866936      0.047388                    
P 26 -18226.408638  -6864.094410  17568.209503    137.782343                    
V 26 -11268.382823 -20593.400126 -18741.825400      0.173530                    
P 27  19677.885881   6602.978751  16568.400003    -22.591488                    
V 27  11376.038379  17809.304722 -20585.112339     -0.048823                    
P 28 -10720.565208 -13248.964100  21002.999987    283.328150                    
V 28  25135.642442  -2328.577575  11522.247442      0.030460                    
P 29    570.079578  20840.818986 -16436.970936    461.325896                    
V 29 -13273.762664 -16262.615715 -20982.384254      0.032376                    
P 31  10811.631919  10983.367909 -21421.925675    323.173758                    
V 31 -11837.951151  24929.753676   7025.402240      0.010444                    
P 32  23126.403980  -7880.877114  -9611.791219   -555.261839                    
V 32  12699.242752   2779.457563  28452.695216      0.016797                    
EOF
